[{"OBJECT_NAME":"CONTINUUM-1","OBJECT_ID":"2023-001AN","EPOCH":"2026-03-09T23:17:35.458656","MEAN_MOTION":15.27981258,"ECCENTRICITY":0.00109493,"INCLINATION":97.3456,"RA_OF_ASC_NODE":133.3964,"ARG_OF_PERICENTER":60.1976,"MEAN_ANOMALY":300.0351,"EPHEMERIS_TYPE":0,"CLASSIFICATION_TYPE":"U","NORAD_CAT_ID":55045,"ELEMENT_SET_NO":999,"REV_AT_EPOCH":17709,"BSTAR":0.00052859897,"MEAN_MOTION_DOT":0.00014395,"MEAN_MOTION_DDOT":0},{"OBJECT_NAME":"STARLINK-36521","OBJECT_ID":"2026-012Q","EPOCH":"2026-03-09T01:59:44.439936","MEAN_MOTION":15.27576759,"ECCENTRICITY":0.00019639,"INCLINATION":43.0034,"RA_OF_ASC_NODE":317.425,"ARG_OF_PERICENTER":262.541,"MEAN_ANOMALY":97.5219,"EPHEMERIS_TYPE":0,"CLASSIFICATION_TYPE":"U","NORAD_CAT_ID":67507,"ELEMENT_SET_NO":999,"REV_AT_EPOCH":767,"BSTAR":0.0010586416,"MEAN_MOTION_DOT":0.00028981,"MEAN_MOTION_DDOT":0}]
